[
  {
    "name": "ONEWEB-0578",
    "noradId": "56067",
    "line1": "1 56067U 23043X   26179.91127067  .00000111  00000+0  23677-3 0  9994",
    "line2": "2 56067  87.9251 241.6401 0002290  92.1238 268.0158 13.21825165159788"
  },
  {
    "name": "ONEWEB-0579",
    "noradId": "56068",
    "line1": "1 56068U 23043Y   26179.67576575  .00000066  00000+0  12855-3 0  9995",
    "line2": "2 56068  87.9256 241.6846 0001863 104.3108 255.8233 13.21826406159769"
  },
  {
    "name": "ONEWEB-0581",
    "noradId": "56069",
    "line1": "1 56069U 23043Z   26179.54981104 -.00000055  00000+0 -17866-3 0  9997",
    "line2": "2 56069  87.9088 226.5280 0001787  80.9604 279.1729 13.16592929160453"
  },
  {
    "name": "ONEWEB-0609",
    "noradId": "56070",
    "line1": "1 56070U 23043AA  26179.74208668  .00002069  00000+0  54609-2 0  9998",
    "line2": "2 56070  87.8996 256.9096 0002424  98.7619 261.3786 13.15539622157953"
  },
  {
    "name": "ONEWEB-0613",
    "noradId": "56071",
    "line1": "1 56071U 23043AB  26179.96788317  .00000150  00000+0  36501-3 0  9998",
    "line2": "2 56071  87.8996 256.8770 0001961 107.5760 252.5585 13.15546593157980"
  },
  {
    "name": "ONEWEB-0630",
    "noradId": "56072",
    "line1": "1 56072U 23043AC  26179.96314151  .00000106  00000+0  24771-3 0  9997",
    "line2": "2 56072  87.9002 256.8501 0001923 106.5826 253.5515 13.15546958157970"
  },
  {
    "name": "ONEWEB-0632",
    "noradId": "56073",
    "line1": "1 56073U 23043AD  26179.95838327  .00000168  00000+0  41201-3 0  9998",
    "line2": "2 56073  87.8998 256.8685 0001881  96.6810 263.4534 13.15548875157973"
  },
  {
    "name": "ONEWEB-0633",
    "noradId": "56074",
    "line1": "1 56074U 23043AE  26179.95204717  .00000045  00000+0  84917-4 0  9995",
    "line2": "2 56074  87.9006 256.8462 0002107 111.7944 248.3411 13.15547492157955"
  },
  {
    "name": "ONEWEB-0634",
    "noradId": "56075",
    "line1": "1 56075U 23043AF  26179.93778437 -.00000157  00000+0 -45140-3 0  9999",
    "line2": "2 56075  87.8998 256.8885 0002376  98.3078 261.8321 13.15548632157946"
  },
  {
    "name": "ONEWEB-0635",
    "noradId": "56076",
    "line1": "1 56076U 23043AG  26179.93302592 -.00000098  00000+0 -29485-3 0  9993",
    "line2": "2 56076  87.9008 256.8529 0001860  93.5420 266.5923 13.15547069157976"
  },
  {
    "name": "ONEWEB-0636",
    "noradId": "56077",
    "line1": "1 56077U 23043AH  26179.92509556 -.00000061  00000+0 -19495-3 0  9992",
    "line2": "2 56077  87.9007 256.8603 0001907  94.4746 265.6603 13.15550443157955"
  },
  {
    "name": "ONEWEB-0637",
    "noradId": "56078",
    "line1": "1 56078U 23043AJ  26179.69059653 -.00000095  00000+0 -28564-3 0  9999",
    "line2": "2 56078  87.9000 256.9227 0002173  92.1679 267.9700 13.15549482157941"
  },
  {
    "name": "ONEWEB-0647",
    "noradId": "56079",
    "line1": "1 56079U 23043AK  26179.68584880  .00000036  00000+0  60479-4 0  9999",
    "line2": "2 56079  87.8998 256.9362 0001849  99.9186 260.2153 13.15549727157933"
  },
  {
    "name": "ONEWEB-0651",
    "noradId": "56080",
    "line1": "1 56080U 23043AL  26179.90926238  .00000191  00000+0  47257-3 0  9993",
    "line2": "2 56080  87.8998 256.8852 0001990  92.6680 267.4678 13.15550040159162"
  },
  {
    "name": "ONEWEB-0718",
    "noradId": "56081",
    "line1": "1 56081U 23043AM  26179.67634214  .00000069  00000+0  14982-3 0  9991",
    "line2": "2 56081  87.8997 256.9122 0002498 102.6696 257.4714 13.15547109157942"
  },
  {
    "name": "ONEWEB-0561",
    "noradId": "56710",
    "line1": "1 56710U 23068A   26179.71269538 -.00000055  00000+0 -16788-3 0  9998",
    "line2": "2 56710  87.9196 272.1466 0001667  96.6791 263.4532 13.20773428151028"
  },
  {
    "name": "ONEWEB-0668",
    "noradId": "56711",
    "line1": "1 56711U 23068B   26179.67647239 -.00000001  00000+0 -35466-4 0  9998",
    "line2": "2 56711  87.9091 226.4908 0002567  90.8856 269.2570 13.16594637153299"
  },
  {
    "name": "ONEWEB-0676",
    "noradId": "56712",
    "line1": "1 56712U 23068C   26179.60839129 -.00000058  00000+0 -18643-3 0  9992",
    "line2": "2 56712  87.9092 226.5104 0001853  87.8014 272.3329 13.16593718153206"
  },
  {
    "name": "ONEWEB-0677",
    "noradId": "56713",
    "line1": "1 56713U 23068D   26179.70092524 -.00000033  00000+0 -11425-3 0  9998",
    "line2": "2 56713  87.9196 272.1405 0002099  89.0287 271.1086 13.20771390151329"
  },
  {
    "name": "ONEWEB-0678",
    "noradId": "56714",
    "line1": "1 56714U 23068E   26179.94887391 -.00000035  00000+0 -12605-3 0  9992",
    "line2": "2 56714  87.9006 256.8512 0001818 105.7694 254.3637 13.15548838150837"
  },
  {
    "name": "ONEWEB-0679",
    "noradId": "56715",
    "line1": "1 56715U 23068F   26179.64321542  .00000072  00000+0  15483-3 0  9997",
    "line2": "2 56715  87.9088 226.4949 0002358  82.9705 277.1694 13.16592478153237"
  },
  {
    "name": "ONEWEB-0680",
    "noradId": "56716",
    "line1": "1 56716U 23068G   26179.67743418  .00000027  00000+0  34209-4 0  9999",
    "line2": "2 56716  87.9256 241.6858 0002548  89.9168 270.2258 13.21824660152612"
  },
  {
    "name": "ONEWEB-0681",
    "noradId": "56717",
    "line1": "1 56717U 23068H   26179.73377687 -.00000156  00000+0 -40850-3 0  9991",
    "line2": "2 56717  87.9252 241.6753 0001485  71.2489 288.8806 13.21825027152614"
  },
  {
    "name": "ONEWEB-0682",
    "noradId": "56718",
    "line1": "1 56718U 23068J   26179.74447618  .00000183  00000+0  45176-3 0  9999",
    "line2": "2 56718  87.9005 256.8923 0002455  91.5805 268.5607 13.15549212150976"
  },
  {
    "name": "ONEWEB-0683",
    "noradId": "56719",
    "line1": "1 56719U 23068K   26179.92035407 -.00000049  00000+0 -16515-3 0  9997",
    "line2": "2 56719  87.9010 256.8573 0002304  97.9156 262.2235 13.15549686150968"
  },
  {
    "name": "ONEWEB-0684",
    "noradId": "56720",
    "line1": "1 56720U 23068L   26179.92828300 -.00000116  00000+0 -34170-3 0  9993",
    "line2": "2 56720  87.9007 256.8456 0002265 135.6663 224.4649 13.15548637150790"
  },
  {
    "name": "ONEWEB-0686",
    "noradId": "56721",
    "line1": "1 56721U 23068M   26179.67963516 -.00000012  00000+0 -66172-4 0  9998",
    "line2": "2 56721  87.9081 226.5100 0002385 100.5476 259.5924 13.16594757153220"
  },
  {
    "name": "ONEWEB-0694",
    "noradId": "56722",
    "line1": "1 56722U 23068N   26179.60996829 -.00000055  00000+0 -17767-3 0  9997",
    "line2": "2 56722  87.9102 226.4908 0002512  90.9152 269.2267 13.16595164153271"
  },
  {
    "name": "ONEWEB-0696",
    "noradId": "56723",
    "line1": "1 56723U 23068P   26179.96155812  .00000123  00000+0  29216-3 0  9992",
    "line2": "2 56723  87.8997 256.8764 0001672 110.6241 249.5069 13.15546808150914"
  },
  {
    "name": "ONEWEB-0703",
    "noradId": "56724",
    "line1": "1 56724U 23068Q   26179.74287569  .00000170  00000+0  41700-3 0  9998",
    "line2": "2 56724  87.8998 256.9010 0001158 110.8963 249.2291 13.15547123150772"
  }
]