OBJECT_NAME,OBJECT_ID,EPOCH,MEAN_MOTION,ECCENTRICITY,INCLINATION,RA_OF_ASC_NODE,ARG_OF_PERICENTER,MEAN_ANOMALY,EPHEMERIS_TYPE,CLASSIFICATION_TYPE,NORAD_CAT_ID,ELEMENT_SET_NO,REV_AT_EPOCH,BSTAR,MEAN_MOTION_DOT,MEAN_MOTION_DDOT
ONEWEB-0578,2023-043X,2026-06-28T21:52:13.785888,13.21825165,.00022904,87.9251,241.6401,92.1238,268.0158,0,U,56067,999,15978,.23676699E-3,.111E-5,0
ONEWEB-0579,2023-043Y,2026-06-28T16:13:06.160800,13.21826406,.00018636,87.9256,241.6846,104.3108,255.8233,0,U,56068,999,15976,.12854798E-3,.66E-6,0
ONEWEB-0581,2023-043Z,2026-06-28T13:11:43.673856,13.16592929,.00017879,87.9088,226.5280,80.9604,279.1729,0,U,56069,999,16045,-.17866115E-3,-.55E-6,0
ONEWEB-0609,2023-043AA,2026-06-28T17:48:36.289152,13.15539622,.0002424,87.8996,256.9096,98.7619,261.3786,0,U,56070,999,15795,.54608507E-2,.2069E-4,0
ONEWEB-0613,2023-043AB,2026-06-28T23:13:45.105888,13.15546593,.00019618,87.8996,256.8770,107.5760,252.5585,0,U,56071,999,15798,.36500991E-3,.15E-5,0
ONEWEB-0630,2023-043AC,2026-06-28T23:06:55.426464,13.15546958,.00019235,87.9002,256.8501,106.5826,253.5515,0,U,56072,999,15797,.24770501E-3,.106E-5,0
ONEWEB-0632,2023-043AD,2026-06-28T23:00:04.314528,13.15548875,.00018811,87.8998,256.8685,96.6810,263.4534,0,U,56073,999,15797,.41201475E-3,.168E-5,0
ONEWEB-0633,2023-043AE,2026-06-28T22:50:56.875488,13.15547492,.00021077,87.9006,256.8462,111.7944,248.3411,0,U,56074,999,15795,.84917424E-4,.45E-6,0
ONEWEB-0634,2023-043AF,2026-06-28T22:30:24.569568,13.15548632,.00023767,87.8998,256.8885,98.3078,261.8321,0,U,56075,999,15794,-.45140326E-3,-.157E-5,0
ONEWEB-0635,2023-043AG,2026-06-28T22:23:33.439488,13.15547069,.000186,87.9008,256.8529,93.5420,266.5923,0,U,56076,999,15797,-.29484561E-3,-.98E-6,0
ONEWEB-0636,2023-043AH,2026-06-28T22:12:08.256384,13.15550443,.00019075,87.9007,256.8603,94.4746,265.6603,0,U,56077,999,15795,-.1949498E-3,-.61E-6,0
ONEWEB-0637,2023-043AJ,2026-06-28T16:34:27.540192,13.15549482,.00021734,87.9000,256.9227,92.1679,267.9700,0,U,56078,999,15794,-.28564305E-3,-.95E-6,0
ONEWEB-0647,2023-043AK,2026-06-28T16:27:37.336320,13.15549727,.00018491,87.8998,256.9362,99.9186,260.2153,0,U,56079,999,15793,.60479071E-4,.36E-6,0
ONEWEB-0651,2023-043AL,2026-06-28T21:49:20.269632,13.15550040,.00019904,87.8998,256.8852,92.6680,267.4678,0,U,56080,999,15916,.47256757E-3,.191E-5,0
ONEWEB-0718,2023-043AM,2026-06-28T16:13:55.960896,13.15547109,.00024981,87.8997,256.9122,102.6696,257.4714,0,U,56081,999,15794,.14982122E-3,.69E-6,0
ONEWEB-0561,2023-068A,2026-06-28T17:06:16.880832,13.20773428,.00016676,87.9196,272.1466,96.6791,263.4532,0,U,56710,999,15102,-.16788131E-3,-.55E-6,0
ONEWEB-0668,2023-068B,2026-06-28T16:14:07.214496,13.16594637,.00025678,87.9091,226.4908,90.8856,269.2570,0,U,56711,999,15329,-.35466005E-4,-.1E-7,0
ONEWEB-0676,2023-068C,2026-06-28T14:36:05.007456,13.16593718,.00018539,87.9092,226.5104,87.8014,272.3329,0,U,56712,999,15320,-.18643491E-3,-.58E-6,0
ONEWEB-0677,2023-068D,2026-06-28T16:49:19.940736,13.20771390,.00020997,87.9196,272.1405,89.0287,271.1086,0,U,56713,999,15132,-.11425481E-3,-.33E-6,0
ONEWEB-0678,2023-068E,2026-06-28T22:46:22.705824,13.15548838,.00018187,87.9006,256.8512,105.7694,254.3637,0,U,56714,999,15083,-.12605169E-3,-.35E-6,0
ONEWEB-0679,2023-068F,2026-06-28T15:26:13.812288,13.16592478,.00023581,87.9088,226.4949,82.9705,277.1694,0,U,56715,999,15323,.15482501E-3,.72E-6,0
ONEWEB-0680,2023-068G,2026-06-28T16:15:30.313152,13.21824660,.00025483,87.9256,241.6858,89.9168,270.2258,0,U,56716,999,15261,.342089E-4,.27E-6,0
ONEWEB-0681,2023-068H,2026-06-28T17:36:38.321568,13.21825027,.00014853,87.9252,241.6753,71.2489,288.8806,0,U,56717,999,15261,-.40849869E-3,-.156E-5,0
ONEWEB-0682,2023-068J,2026-06-28T17:52:02.741952,13.15549212,.00024551,87.9005,256.8923,91.5805,268.5607,0,U,56718,999,15097,.45176248E-3,.183E-5,0
ONEWEB-0683,2023-068K,2026-06-28T22:05:18.591648,13.15549686,.00023041,87.9010,256.8573,97.9156,262.2235,0,U,56719,999,15096,-.16514655E-3,-.49E-6,0
ONEWEB-0684,2023-068L,2026-06-28T22:16:43.651200,13.15548637,.00022653,87.9007,256.8456,135.6663,224.4649,0,U,56720,999,15079,-.34169983E-3,-.116E-5,0
ONEWEB-0686,2023-068M,2026-06-28T16:18:40.477824,13.16594757,.00023856,87.9081,226.5100,100.5476,259.5924,0,U,56721,999,15322,-.66172085E-4,-.12E-6,0
ONEWEB-0694,2023-068N,2026-06-28T14:38:21.260256,13.16595164,.00025122,87.9102,226.4908,90.9152,269.2267,0,U,56722,999,15327,-.17766553E-3,-.55E-6,0
ONEWEB-0696,2023-068P,2026-06-28T23:04:38.621568,13.15546808,.00016722,87.8997,256.8764,110.6241,249.5069,0,U,56723,999,15091,.29216064E-3,.123E-5,0
ONEWEB-0703,2023-068Q,2026-06-28T17:49:44.459616,13.15547123,.00011586,87.8998,256.9010,110.8963,249.2291,0,U,56724,999,15077,.41700399E-3,.17E-5,0
